start=new Date('2021-09-25T00:00:00.000Z').valueOf();
sats=[{"FILE":"3126800","COUNTRY_CODE":"US","MEAN_ANOMALY":"282.5941","NORAD_CAT_ID":"47588","EPHEMERIS_TYPE":"0","APOAPSIS":"548.691","CLASSIFICATION_TYPE":"U","OBJECT_TYPE":"PAYLOAD","ARG_OF_PERICENTER":"77.5286","REF_FRAME":"TEME","RA_OF_ASC_NODE":"125.1531","MEAN_MOTION_DOT":"-0.00000416","LAUNCH_DATE":"2021-02-04","OBJECT_NAME":"STARLINK-1993","MEAN_MOTION":"15.06398419","ELEMENT_SET_NO":"999","DECAY_DATE":null,"MEAN_ELEMENT_THEORY":"SGP4","TLE_LINE1":"1 47588U 21009AS  21267.77050469 -.00000416  00000-0 -89931-5 0  9998","PERIOD":"95.592","EPOCH":"2021-09-24T18:29:31.605216","CENTER_NAME":"EARTH","REV_AT_EPOCH":"3558","ECCENTRICITY":"0.00021270","SEMIMAJOR_AXIS":"6925.353","PERIAPSIS":"545.745","TLE_LINE2":"2 47588  53.0551 125.1531 0002127  77.5286 282.5941 15.06398419 35586","MEAN_MOTION_DDOT":"0.0000000000000","INCLINATION":"53.0551","OBJECT_ID":"2021-009AS","GP_ID":"185429680","BSTAR":"-0.00000899310000","SITE":"AFETR","RCS_SIZE":"LARGE","TIME_SYSTEM":"UTC"},{"APOAPSIS":"548.744","ARG_OF_PERICENTER":"82.6009","CLASSIFICATION_TYPE":"U","OBJECT_TYPE":"PAYLOAD","MEAN_ANOMALY":"277.5229","FILE":"3126800","COUNTRY_CODE":"US","EPHEMERIS_TYPE":"0","NORAD_CAT_ID":"47589","OBJECT_NAME":"STARLINK-1994","DECAY_DATE":null,"ELEMENT_SET_NO":"999","MEAN_ELEMENT_THEORY":"SGP4","MEAN_MOTION":"15.06396290","RA_OF_ASC_NODE":"124.4580","REF_FRAME":"TEME","LAUNCH_DATE":"2021-02-04","MEAN_MOTION_DOT":"-0.00000111","REV_AT_EPOCH":"3560","TLE_LINE1":"1 47589U 21009AT  21267.92164243 -.00000111  00000-0  11493-4 0  9990","PERIOD":"95.592","CENTER_NAME":"EARTH","EPOCH":"2021-09-24T22:07:09.905952","INCLINATION":"53.0549","MEAN_MOTION_DDOT":"0.0000000000000","OBJECT_ID":"2021-009AT","SITE":"AFETR","RCS_SIZE":"LARGE","TIME_SYSTEM":"UTC","GP_ID":"185430432","BSTAR":"0.00001149300000","PERIAPSIS":"545.706","SEMIMAJOR_AXIS":"6925.360","ECCENTRICITY":"0.00021940","TLE_LINE2":"2 47589  53.0549 124.4580 0002194  82.6009 277.5229 15.06396290 35605"},{"ARG_OF_PERICENTER":"81.6189","CLASSIFICATION_TYPE":"U","OBJECT_TYPE":"PAYLOAD","APOAPSIS":"548.736","EPHEMERIS_TYPE":"0","NORAD_CAT_ID":"47590","COUNTRY_CODE":"US","FILE":"3126800","MEAN_ANOMALY":"278.5047","MEAN_ELEMENT_THEORY":"SGP4","ELEMENT_SET_NO":"999","DECAY_DATE":null,"MEAN_MOTION":"15.06396211","OBJECT_NAME":"STARLINK-1995","LAUNCH_DATE":"2021-02-04","MEAN_MOTION_DOT":"-0.00000519","RA_OF_ASC_NODE":"145.0944","REF_FRAME":"TEME","REV_AT_EPOCH":"3530","EPOCH":"2021-09-24T18:42:48.570048","CENTER_NAME":"EARTH","PERIOD":"95.592","TLE_LINE1":"1 47590U 21009AU  21267.77972882 -.00000519  00000-0 -15943-4 0  9998","SITE":"AFETR","RCS_SIZE":"LARGE","TIME_SYSTEM":"UTC","BSTAR":"-0.00001594300000","GP_ID":"185429181","OBJECT_ID":"2021-009AU","INCLINATION":"53.0548","MEAN_MOTION_DDOT":"0.0000000000000","TLE_LINE2":"2 47590  53.0548 145.0944 0002181  81.6189 278.5047 15.06396211 35302","SEMIMAJOR_AXIS":"6925.360","PERIAPSIS":"545.715","ECCENTRICITY":"0.00021810"},{"GP_ID":"185429431","BSTAR":"0.00012794000000","SITE":"AFETR","RCS_SIZE":"LARGE","TIME_SYSTEM":"UTC","MEAN_MOTION_DDOT":"0.0000000000000","INCLINATION":"53.0542","OBJECT_ID":"2021-009AV","TLE_LINE2":"2 47591  53.0542 124.4657 0002159  79.0337 281.0895 15.06397950 35604","ECCENTRICITY":"0.00021590","PERIAPSIS":"545.725","SEMIMAJOR_AXIS":"6925.355","REV_AT_EPOCH":"3560","CENTER_NAME":"EARTH","EPOCH":"2021-09-24T22:01:50.340864","TLE_LINE1":"1 47591U 21009AV  21267.91794376  .00001624  00000-0  12794-3 0  9991","PERIOD":"95.592","MEAN_MOTION":"15.06397950","ELEMENT_SET_NO":"999","DECAY_DATE":null,"MEAN_ELEMENT_THEORY":"SGP4","OBJECT_NAME":"STARLINK-1996","MEAN_MOTION_DOT":"0.00001624","LAUNCH_DATE":"2021-02-04","REF_FRAME":"TEME","RA_OF_ASC_NODE":"124.4657","OBJECT_TYPE":"PAYLOAD","CLASSIFICATION_TYPE":"U","ARG_OF_PERICENTER":"79.0337","APOAPSIS":"548.715","NORAD_CAT_ID":"47591","EPHEMERIS_TYPE":"0","COUNTRY_CODE":"US","FILE":"3126800","MEAN_ANOMALY":"281.0895"},{"INCLINATION":"53.0557","MEAN_MOTION_DDOT":"0.0000000000000","OBJECT_ID":"2021-009AW","RCS_SIZE":"LARGE","SITE":"AFETR","TIME_SYSTEM":"UTC","GP_ID":"185430180","BSTAR":"-0.00002703500000","SEMIMAJOR_AXIS":"6925.386","PERIAPSIS":"545.741","ECCENTRICITY":"0.00021800","TLE_LINE2":"2 47592  53.0557 144.6406 0002180  79.0425 281.0809 15.06387919 35316","REV_AT_EPOCH":"3531","TLE_LINE1":"1 47592U 21009AW  21267.88292892 -.00000684  00000-0 -27035-4 0  9996","PERIOD":"95.593","EPOCH":"2021-09-24T21:11:25.058688","CENTER_NAME":"EARTH","OBJECT_NAME":"STARLINK-1997","DECAY_DATE":null,"ELEMENT_SET_NO":"999","MEAN_ELEMENT_THEORY":"SGP4","MEAN_MOTION":"15.06387919","RA_OF_ASC_NODE":"144.6406","REF_FRAME":"TEME","LAUNCH_DATE":"2021-02-04","MEAN_MOTION_DOT":"-0.00000684","APOAPSIS":"548.760","ARG_OF_PERICENTER":"79.0425","OBJECT_TYPE":"PAYLOAD","CLASSIFICATION_TYPE":"U","MEAN_ANOMALY":"281.0809","FILE":"3126800","COUNTRY_CODE":"US","NORAD_CAT_ID":"47592","EPHEMERIS_TYPE":"0"},{"TLE_LINE1":"1 47593U 21009AX  21267.91978106 -.00000320  00000-0 -25706-5 0  9991","PERIOD":"95.592","CENTER_NAME":"EARTH","EPOCH":"2021-09-24T22:04:29.083584","REV_AT_EPOCH":"3532","ECCENTRICITY":"0.00021480","PERIAPSIS":"545.710","SEMIMAJOR_AXIS":"6925.333","TLE_LINE2":"2 47593  53.0553 144.4834 0002148  86.3634 273.7600 15.06405175 35326","MEAN_MOTION_DDOT":"0.0000000000000","INCLINATION":"53.0553","OBJECT_ID":"2021-009AX","GP_ID":"185429933","BSTAR":"-0.00000257060000","SITE":"AFETR","RCS_SIZE":"LARGE","TIME_SYSTEM":"UTC","FILE":"3126800","COUNTRY_CODE":"US","MEAN_ANOMALY":"273.7600","NORAD_CAT_ID":"47593","EPHEMERIS_TYPE":"0","APOAPSIS":"548.685","CLASSIFICATION_TYPE":"U","OBJECT_TYPE":"PAYLOAD","ARG_OF_PERICENTER":"86.3634","REF_FRAME":"TEME","RA_OF_ASC_NODE":"144.4834","MEAN_MOTION_DOT":"-0.00000320","LAUNCH_DATE":"2021-02-04","OBJECT_NAME":"STARLINK-1998","MEAN_MOTION":"15.06405175","DECAY_DATE":null,"ELEMENT_SET_NO":"999","MEAN_ELEMENT_THEORY":"SGP4"},{"ECCENTRICITY":"0.00019340","SEMIMAJOR_AXIS":"6925.342","PERIAPSIS":"545.868","TLE_LINE2":"2 47594  53.0554 144.6211 0001934  78.8552 281.2654 15.06402176 35316","OBJECT_ID":"2021-009AY","MEAN_MOTION_DDOT":"0.0000000000000","INCLINATION":"53.0554","BSTAR":"-0.00000704920000","GP_ID":"185428682","RCS_SIZE":"LARGE","SITE":"AFETR","TIME_SYSTEM":"UTC","PERIOD":"95.592","TLE_LINE1":"1 47594U 21009AY  21267.88660840 -.00000387  00000-0 -70492-5 0  9996","CENTER_NAME":"EARTH","EPOCH":"2021-09-24T21:16:42.965760","REV_AT_EPOCH":"3531","REF_FRAME":"TEME","RA_OF_ASC_NODE":"144.6211","MEAN_MOTION_DOT":"-0.00000387","LAUNCH_DATE":"2021-02-04","OBJECT_NAME":"STARLINK-1999","MEAN_MOTION":"15.06402176","MEAN_ELEMENT_THEORY":"SGP4","DECAY_DATE":null,"ELEMENT_SET_NO":"999","FILE":"3126800","MEAN_ANOMALY":"281.2654","COUNTRY_CODE":"US","EPHEMERIS_TYPE":"0","NORAD_CAT_ID":"47594","APOAPSIS":"548.546","OBJECT_TYPE":"PAYLOAD","CLASSIFICATION_TYPE":"U","ARG_OF_PERICENTER":"78.8552"},{"MEAN_MOTION_DOT":"-0.00000487","LAUNCH_DATE":"2021-02-04","REF_FRAME":"TEME","RA_OF_ASC_NODE":"144.3933","MEAN_MOTION":"15.06401466","ELEMENT_SET_NO":"999","DECAY_DATE":null,"MEAN_ELEMENT_THEORY":"SGP4","OBJECT_NAME":"STARLINK-2000","NORAD_CAT_ID":"47595","EPHEMERIS_TYPE":"0","MEAN_ANOMALY":"289.0748","FILE":"3126800","COUNTRY_CODE":"US","CLASSIFICATION_TYPE":"U","OBJECT_TYPE":"PAYLOAD","ARG_OF_PERICENTER":"71.0468","APOAPSIS":"548.658","TLE_LINE2":"2 47595  53.0562 144.3933 0002092  71.0468 289.0748 15.06401466 35323","ECCENTRICITY":"0.00020920","PERIAPSIS":"545.760","SEMIMAJOR_AXIS":"6925.344","GP_ID":"185428932","BSTAR":"-0.00001379500000","TIME_SYSTEM":"UTC","SITE":"AFETR","RCS_SIZE":"LARGE","INCLINATION":"53.0562","MEAN_MOTION_DDOT":"0.0000000000000","OBJECT_ID":"2021-009AZ","CENTER_NAME":"EARTH","EPOCH":"2021-09-24T22:31:02.118144","TLE_LINE1":"1 47595U 21009AZ  21267.93821896 -.00000487  00000-0 -13795-4 0  9996","PERIOD":"95.592","REV_AT_EPOCH":"3532"},{"EPOCH":"2021-09-24T21:00:47.983968","CENTER_NAME":"EARTH","TLE_LINE1":"1 47596U 21009BA  21267.87555537 -.00000332  00000-0 -33931-5 0  9990","PERIOD":"95.593","REV_AT_EPOCH":"3531","TLE_LINE2":"2 47596  53.0555 144.6715 0002200  86.2425 273.8815 15.06386638 35317","SEMIMAJOR_AXIS":"6925.390","PERIAPSIS":"545.731","ECCENTRICITY":"0.00022000","SITE":"AFETR","RCS_SIZE":"LARGE","TIME_SYSTEM":"UTC","GP_ID":"185429681","BSTAR":"-0.00000339310000","MEAN_MOTION_DDOT":"0.0000000000000","INCLINATION":"53.0555","OBJECT_ID":"2021-009BA","EPHEMERIS_TYPE":"0","NORAD_CAT_ID":"47596","MEAN_ANOMALY":"273.8815","FILE":"3126800","COUNTRY_CODE":"US","ARG_OF_PERICENTER":"86.2425","CLASSIFICATION_TYPE":"U","OBJECT_TYPE":"PAYLOAD","APOAPSIS":"548.778","LAUNCH_DATE":"2021-02-04","MEAN_MOTION_DOT":"-0.00000332","RA_OF_ASC_NODE":"144.6715","REF_FRAME":"TEME","ELEMENT_SET_NO":"999","DECAY_DATE":null,"MEAN_ELEMENT_THEORY":"SGP4","MEAN_MOTION":"15.06386638","OBJECT_NAME":"STARLINK-2001"},{"OBJECT_NAME":"STARLINK-2002","MEAN_MOTION":"15.06404477","ELEMENT_SET_NO":"999","DECAY_DATE":null,"MEAN_ELEMENT_THEORY":"SGP4","REF_FRAME":"TEME","RA_OF_ASC_NODE":"144.4098","MEAN_MOTION_DOT":"0.00000331","LAUNCH_DATE":"2021-02-04","APOAPSIS":"548.834","OBJECT_TYPE":"PAYLOAD","CLASSIFICATION_TYPE":"U","ARG_OF_PERICENTER":"73.4583","FILE":"3126800","MEAN_ANOMALY":"286.6665","COUNTRY_CODE":"US","NORAD_CAT_ID":"47597","EPHEMERIS_TYPE":"0","MEAN_MOTION_DDOT":"0.0000000000000","INCLINATION":"53.0557","OBJECT_ID":"2021-009BB","GP_ID":"185430433","BSTAR":"0.00004114800000","SITE":"AFETR","RCS_SIZE":"LARGE","TIME_SYSTEM":"UTC","ECCENTRICITY":"0.00023590","PERIAPSIS":"545.566","SEMIMAJOR_AXIS":"6925.335","TLE_LINE2":"2 47597  53.0557 144.4098 0002359  73.4583 286.6665 15.06404477 35328","REV_AT_EPOCH":"3532","TLE_LINE1":"1 47597U 21009BB  21267.93452612  .00000331  00000-0  41148-4 0  9993","PERIOD":"95.592","EPOCH":"2021-09-24T22:25:43.056768","CENTER_NAME":"EARTH"}];
